OBJECT_NAME,OBJECT_ID,EPOCH,MEAN_MOTION,ECCENTRICITY,INCLINATION,RA_OF_ASC_NODE,ARG_OF_PERICENTER,MEAN_ANOMALY,EPHEMERIS_TYPE,CLASSIFICATION_TYPE,NORAD_CAT_ID,ELEMENT_SET_NO,REV_AT_EPOCH,BSTAR,MEAN_MOTION_DOT,MEAN_MOTION_DDOT
CUBEBUG-2 (LO-74),2013-066AA,2026-06-27T07:28:57.048096,14.93842300,.0057383,97.8904,127.3330,355.5679,4.5024,0,U,39440,999,67850,.42087701E-3,.4554E-4,0
FUNCUBE-1 (AO-73),2013-066AE,2026-06-27T04:45:49.348512,15.09604737,.00366733,97.8270,149.8537,166.8989,193.3201,0,U,39444,999,68117,.47725124E-3,.7726E-4,0
UWE-3,2013-066AG,2026-06-26T20:10:13.067328,14.97101122,.00467941,97.8709,133.9799,288.3987,71.2149,0,U,39446,999,67902,.36186931E-3,.4205E-4,0
UNISAT-6,2014-033C,2026-06-27T00:23:54.442176,14.88291418,.00456702,97.7883,330.5560,37.6465,322.7933,0,U,40012,999,64762,.29005456E-3,.2676E-4,0
DUCHIFAT-1,2014-033M,2026-06-27T02:53:51.999936,15.66663856,.00010124,98.0447,238.6906,103.7667,256.3704,0,U,40021,999,65730,.11663849E-2,.123708E-2,0
QB50P1,2014-033R,2026-06-27T07:10:49.850112,15.18409172,.00088622,98.0962,190.1548,179.4885,180.6358,0,U,40025,999,65456,.42669053E-3,.8713E-4,0
LILACSAT-2,2015-049K,2026-06-27T07:59:33.551808,15.51771421,.00064787,97.4637,215.5614,200.5095,159.5898,0,U,40908,999,59732,.31361584E-3,.18646E-3,0
FOX-1A (AO-85),2015-058D,2026-06-27T06:42:26.989920,14.91010546,.01310516,64.7747,247.6192,52.6707,308.6261,0,U,40967,999,11507,.20894147E-3,.2262E-4,0
CAS-2T & KS-1Q,2016-066G,2026-06-27T05:08:09.570624,14.44725785,.03428934,98.3821,253.8357,99.1618,264.8526,0,U,41847,999,50624,.23813313E-3,.1654E-4,0
RADFXSAT (FOX-1B),2017-073E,2026-06-26T20:45:45.694944,15.12844339,.01486006,97.4694,44.8822,295.5005,63.0920,0,U,43017,999,46685,.30343911E-3,.6924E-4,0
DIWATA-2B,2018-084H,2026-06-27T05:45:01.222272,15.00493685,.00130251,98.1203,14.8864,138.6992,221.5218,0,U,43678,999,41772,.16026452E-3,.1956E-4,0
ES'HAIL 2,2018-090A,2026-06-27T04:04:25.753728,1.00270707,.00021445,0.0097,15.5646,113.3726,233.2389,0,U,43700,999,2777,0,.156E-5,0
FOX-1CLIFF (AO-95),2018-099N,2026-06-26T23:22:33.116160,15.26910459,.00071121,97.4387,238.1847,318.8869,41.1833,0,U,43770,999,41471,.46988027E-3,.12361E-3,0
ITASAT,2018-099AE,2026-06-27T02:23:41.355744,15.19174435,.00111544,97.4026,229.4136,323.3169,36.7301,0,U,43786,999,41441,.34841843E-3,.7273E-4,0
JY1SAT (JO-97),2018-099AX,2026-06-27T03:25:31.691424,15.33961591,.0005113,97.4134,241.0127,218.5591,141.5287,0,U,43803,999,41515,.56045326E-3,.18364E-3,0
UWE-4,2018-111E,2026-06-27T01:13:08.165280,15.46723335,.00043156,97.5849,106.9000,290.5001,69.5785,0,U,43880,999,41230,.6880485E-3,.34426E-3,0
TIANYAN 01,2019-093C,2026-06-27T06:37:45.323328,14.86533425,.00148652,97.7532,250.2623,56.9226,303.3415,0,U,44881,999,35291,.98104281E-4,.817E-5,0
RS-44 & BREEZE-KM R/B,2019-096E,2026-06-27T04:02:59.689824,12.79749020,.02184774,82.5226,333.0713,120.9258,241.3520,0,U,44909,999,30362,.5824312E-5,.15E-6,0
SALSAT,2020-068K,2026-06-26T22:57:28.471392,15.29932421,.0007823,97.8848,181.6168,266.2984,93.7361,0,U,46495,999,31685,.28601E-3,.8212E-4,0
XW-3 (CAS-9),2021-131B,2026-06-27T06:13:15.146976,14.41366378,.00053521,98.4984,270.5944,73.3346,286.8430,0,U,50466,999,23656,.17738085E-3,.53E-5,0
GREENCUBE (IO-117),2022-080E,2026-06-26T16:16:29.555040,6.42583228,.00089846,70.1443,294.9444,287.5437,72.4241,0,U,53109,999,9267,0,-.3E-7,0
UMKA 1 (RS40S),2023-091G,2026-06-27T07:00:26.197632,15.20931844,.00142903,97.5052,236.9504,86.5140,273.7730,0,U,57172,999,16554,.29738456E-3,.6529E-4,0
CUBESX-HSE 3 (RS42S),2023-091N,2026-06-27T05:41:12.949152,15.31462356,.00114932,97.5095,243.9518,63.2685,296.9731,0,U,57178,999,16596,.47229503E-3,.1431E-3,0
MONITOR-3 (RS58S),2023-091Q,2026-06-27T06:48:36.475200,15.28039788,.00127043,97.5086,241.8043,69.4849,290.7752,0,U,57180,999,16583,.40327981E-3,.10984E-3,0
MONITOR-4 (RS57S),2023-091S,2026-06-27T04:43:20.936640,15.28122656,.00126991,97.5080,241.6885,69.9430,290.3175,0,U,57182,999,16582,.42471827E-3,.11602E-3,0
MONITOR-2 (RS39S),2023-091U,2026-06-27T06:14:31.906464,15.19000516,.00126747,97.5073,236.4779,80.6740,279.5926,0,U,57184,999,16548,.25690661E-3,.5318E-4,0
SVYATOBOR 1 (RS60S),2023-091X,2026-06-27T06:49:04.922400,15.26781761,.00104534,97.5092,242.1573,63.9034,296.3279,0,U,57187,999,16585,.36556341E-3,.9566E-4,0
VIZARD-METEO (RS38S),2023-091Z,2026-06-27T05:51:37.586592,15.36338341,.00074909,97.5095,247.9321,46.4216,313.7648,0,U,57189,999,16623,.51956793E-3,.18365E-3,0
POLYTECH-UNIVERSE 3 (RS46S),2023-091AB,2026-06-27T06:51:45.811296,15.19207596,.00170686,97.5049,236.0078,94.9495,265.3688,0,U,57191,999,16548,.26331194E-3,.5494E-4,0
UTMN 2 (RS27S),2023-091AP,2026-06-27T05:58:40.109376,15.32291451,.00086096,97.5091,245.6103,53.1258,307.0771,0,U,57203,999,16608,.4577459E-3,.14218E-3,0
